CCSDS_OMM_VERS = 2.0
CREATION_DATE  = 
ORIGINATOR     = 

OBJECT_NAME    = STARLINK-36810
OBJECT_ID      = 2026-035V
CENTER_NAME    = EARTH
REF_FRAME      = TEME
TIME_SYSTEM    = UTC
MEAN_ELEMENT_THEORY = SGP/SGP4

EPOCH          = 2026-03-10T06:00:02.000160
MEAN_MOTION    = 15.85766127
ECCENTRICITY   = .0001383
INCLINATION    = 97.2677
RA_OF_ASC_NODE = 1.6391
ARG_OF_PERICENTER = 101.1347
MEAN_ANOMALY   = 120.5247

EPHEMERIS_TYPE = 0
CLASSIFICATION_TYPE = U
NORAD_CAT_ID   = 67898
ELEMENT_SET_NO = 999
REV_AT_EPOCH   = 384
BSTAR          = -.60129338E-2
MEAN_MOTION_DOT = -.1284898E-1
MEAN_MOTION_DDOT = 0

CCSDS_OMM_VERS = 2.0
CREATION_DATE  = 
ORIGINATOR     = 

OBJECT_NAME    = STARLINK-36878
OBJECT_ID      = 2026-035W
CENTER_NAME    = EARTH
REF_FRAME      = TEME
TIME_SYSTEM    = UTC
MEAN_ELEMENT_THEORY = SGP/SGP4

EPOCH          = 2026-03-10T06:00:02.000160
MEAN_MOTION    = 15.85708235
ECCENTRICITY   = .00015271
INCLINATION    = 97.2671
RA_OF_ASC_NODE = 1.6431
ARG_OF_PERICENTER = 116.0484
MEAN_ANOMALY   = 114.6974

EPHEMERIS_TYPE = 0
CLASSIFICATION_TYPE = U
NORAD_CAT_ID   = 67899
ELEMENT_SET_NO = 999
REV_AT_EPOCH   = 384
BSTAR          = -.60867732E-2
MEAN_MOTION_DOT = -.1295701E-1
MEAN_MOTION_DDOT = 0

CCSDS_OMM_VERS = 2.0
CREATION_DATE  = 
ORIGINATOR     = 

OBJECT_NAME    = STARLINK-36361
OBJECT_ID      = 2026-035X
CENTER_NAME    = EARTH
REF_FRAME      = TEME
TIME_SYSTEM    = UTC
MEAN_ELEMENT_THEORY = SGP/SGP4

EPOCH          = 2026-03-10T06:00:02.000160
MEAN_MOTION    = 15.85658792
ECCENTRICITY   = .00015438
INCLINATION    = 97.2670
RA_OF_ASC_NODE = 1.6451
ARG_OF_PERICENTER = 117.9379
MEAN_ANOMALY   = 117.5107

EPHEMERIS_TYPE = 0
CLASSIFICATION_TYPE = U
NORAD_CAT_ID   = 67900
ELEMENT_SET_NO = 999
REV_AT_EPOCH   = 384
BSTAR          = -.61411591E-2
MEAN_MOTION_DOT = -.1303159E-1
MEAN_MOTION_DDOT = 0

CCSDS_OMM_VERS = 2.0
CREATION_DATE  = 
ORIGINATOR     = 

OBJECT_NAME    = STARLINK-36336
OBJECT_ID      = 2026-035Y
CENTER_NAME    = EARTH
REF_FRAME      = TEME
TIME_SYSTEM    = UTC
MEAN_ELEMENT_THEORY = SGP/SGP4

EPOCH          = 2026-03-10T06:00:02.000160
MEAN_MOTION    = 15.85500807
ECCENTRICITY   = .00014256
INCLINATION    = 97.2676
RA_OF_ASC_NODE = 1.6521
ARG_OF_PERICENTER = 109.5043
MEAN_ANOMALY   = 140.1394

EPHEMERIS_TYPE = 0
CLASSIFICATION_TYPE = U
NORAD_CAT_ID   = 67901
ELEMENT_SET_NO = 999
REV_AT_EPOCH   = 389
BSTAR          = -.63067813E-2
MEAN_MOTION_DOT = -.1325009E-1
MEAN_MOTION_DDOT = 0

CCSDS_OMM_VERS = 2.0
CREATION_DATE  = 
ORIGINATOR     = 

OBJECT_NAME    = STARLINK-36876
OBJECT_ID      = 2026-035Z
CENTER_NAME    = EARTH
REF_FRAME      = TEME
TIME_SYSTEM    = UTC
MEAN_ELEMENT_THEORY = SGP/SGP4

EPOCH          = 2026-03-10T06:00:02.000160
MEAN_MOTION    = 15.85644015
ECCENTRICITY   = .00016014
INCLINATION    = 97.2675
RA_OF_ASC_NODE = 1.6484
ARG_OF_PERICENTER = 114.5728
MEAN_ANOMALY   = 125.3484

EPHEMERIS_TYPE = 0
CLASSIFICATION_TYPE = U
NORAD_CAT_ID   = 67902
ELEMENT_SET_NO = 999
REV_AT_EPOCH   = 384
BSTAR          = -.61804738E-2
MEAN_MOTION_DOT = -.1309725E-1
MEAN_MOTION_DDOT = 0

CCSDS_OMM_VERS = 2.0
CREATION_DATE  = 
ORIGINATOR     = 

OBJECT_NAME    = STARLINK-36257
OBJECT_ID      = 2026-035AA
CENTER_NAME    = EARTH
REF_FRAME      = TEME
TIME_SYSTEM    = UTC
MEAN_ELEMENT_THEORY = SGP/SGP4

EPOCH          = 2026-03-10T06:00:02.000160
MEAN_MOTION    = 15.85617874
ECCENTRICITY   = .00013875
INCLINATION    = 97.2673
RA_OF_ASC_NODE = 1.6490
ARG_OF_PERICENTER = 103.2631
MEAN_ANOMALY   = 141.2166

EPHEMERIS_TYPE = 0
CLASSIFICATION_TYPE = U
NORAD_CAT_ID   = 67903
ELEMENT_SET_NO = 999
REV_AT_EPOCH   = 389
BSTAR          = -.62320513E-2
MEAN_MOTION_DOT = -.1317729E-1
MEAN_MOTION_DDOT = 0

CCSDS_OMM_VERS = 2.0
CREATION_DATE  = 
ORIGINATOR     = 

OBJECT_NAME    = STARLINK-36814
OBJECT_ID      = 2026-036A
CENTER_NAME    = EARTH
REF_FRAME      = TEME
TIME_SYSTEM    = UTC
MEAN_ELEMENT_THEORY = SGP/SGP4

EPOCH          = 2026-03-10T06:00:02.000160
MEAN_MOTION    = 15.73307431
ECCENTRICITY   = .00015333
INCLINATION    = 42.9999
RA_OF_ASC_NODE = 246.4570
ARG_OF_PERICENTER = 269.8605
MEAN_ANOMALY   = 246.1556

EPHEMERIS_TYPE = 0
CLASSIFICATION_TYPE = U
NORAD_CAT_ID   = 67904
ELEMENT_SET_NO = 999
REV_AT_EPOCH   = 373
BSTAR          = -.15615731E-1
MEAN_MOTION_DOT = -.1969049E-1
MEAN_MOTION_DDOT = 0

CCSDS_OMM_VERS = 2.0
CREATION_DATE  = 
ORIGINATOR     = 

OBJECT_NAME    = STARLINK-36729
OBJECT_ID      = 2026-036B
CENTER_NAME    = EARTH
REF_FRAME      = TEME
TIME_SYSTEM    = UTC
MEAN_ELEMENT_THEORY = SGP/SGP4

EPOCH          = 2026-03-09T23:07:38.664480
MEAN_MOTION    = 15.82119465
ECCENTRICITY   = .00020707
INCLINATION    = 42.9992
RA_OF_ASC_NODE = 248.1201
ARG_OF_PERICENTER = 279.1565
MEAN_ANOMALY   = 80.9072

EPHEMERIS_TYPE = 0
CLASSIFICATION_TYPE = U
NORAD_CAT_ID   = 67905
ELEMENT_SET_NO = 999
REV_AT_EPOCH   = 371
BSTAR          = .13842369E-2
MEAN_MOTION_DOT = .302828E-2
MEAN_MOTION_DDOT = 0

CCSDS_OMM_VERS = 2.0
CREATION_DATE  = 
ORIGINATOR     = 

OBJECT_NAME    = STARLINK-36763
OBJECT_ID      = 2026-036C
CENTER_NAME    = EARTH
REF_FRAME      = TEME
TIME_SYSTEM    = UTC
MEAN_ELEMENT_THEORY = SGP/SGP4

EPOCH          = 2026-03-09T21:35:39.581952
MEAN_MOTION    = 15.82061167
ECCENTRICITY   = .0001658
INCLINATION    = 42.9991
RA_OF_ASC_NODE = 248.5006
ARG_OF_PERICENTER = 287.2048
MEAN_ANOMALY   = 72.8643

EPHEMERIS_TYPE = 0
CLASSIFICATION_TYPE = U
NORAD_CAT_ID   = 67906
ELEMENT_SET_NO = 999
REV_AT_EPOCH   = 370
BSTAR          = .90861E-3
MEAN_MOTION_DOT = .195584E-2
MEAN_MOTION_DDOT = 0

CCSDS_OMM_VERS = 2.0
CREATION_DATE  = 
ORIGINATOR     = 

OBJECT_NAME    = STARLINK-36742
OBJECT_ID      = 2026-036D
CENTER_NAME    = EARTH
REF_FRAME      = TEME
TIME_SYSTEM    = UTC
MEAN_ELEMENT_THEORY = SGP/SGP4

EPOCH          = 2026-03-09T21:34:34.583232
MEAN_MOTION    = 15.82098755
ECCENTRICITY   = .0002122
INCLINATION    = 42.9993
RA_OF_ASC_NODE = 248.4956
ARG_OF_PERICENTER = 279.1110
MEAN_ANOMALY   = 80.9522

EPHEMERIS_TYPE = 0
CLASSIFICATION_TYPE = U
NORAD_CAT_ID   = 67907
ELEMENT_SET_NO = 999
REV_AT_EPOCH   = 370
BSTAR          = .1231E-2
MEAN_MOTION_DOT = .267893E-2
MEAN_MOTION_DDOT = 0

CCSDS_OMM_VERS = 2.0
CREATION_DATE  = 
ORIGINATOR     = 

OBJECT_NAME    = STARLINK-36827
OBJECT_ID      = 2026-036E
CENTER_NAME    = EARTH
REF_FRAME      = TEME
TIME_SYSTEM    = UTC
MEAN_ELEMENT_THEORY = SGP/SGP4

EPOCH          = 2026-03-09T23:04:24.660192
MEAN_MOTION    = 15.82117013
ECCENTRICITY   = .00021081
INCLINATION    = 42.9986
RA_OF_ASC_NODE = 248.1012
ARG_OF_PERICENTER = 299.4497
MEAN_ANOMALY   = 60.6164

EPHEMERIS_TYPE = 0
CLASSIFICATION_TYPE = U
NORAD_CAT_ID   = 67908
ELEMENT_SET_NO = 999
REV_AT_EPOCH   = 371
BSTAR          = .15202277E-2
MEAN_MOTION_DOT = .3338E-2
MEAN_MOTION_DDOT = 0

CCSDS_OMM_VERS = 2.0
CREATION_DATE  = 
ORIGINATOR     = 

OBJECT_NAME    = STARLINK-36822
OBJECT_ID      = 2026-036F
CENTER_NAME    = EARTH
REF_FRAME      = TEME
TIME_SYSTEM    = UTC
MEAN_ELEMENT_THEORY = SGP/SGP4

EPOCH          = 2026-03-09T23:03:19.833408
MEAN_MOTION    = 15.82145601
ECCENTRICITY   = .00017702
INCLINATION    = 42.9986
RA_OF_ASC_NODE = 248.0951
ARG_OF_PERICENTER = 299.6042
MEAN_ANOMALY   = 60.4653

EPHEMERIS_TYPE = 0
CLASSIFICATION_TYPE = U
NORAD_CAT_ID   = 67909
ELEMENT_SET_NO = 999
REV_AT_EPOCH   = 371
BSTAR          = .18492644E-2
MEAN_MOTION_DOT = .410368E-2
MEAN_MOTION_DDOT = 0

