STARLINK-36810          
1 67898U 26035V   26069.25002315 -.01284898  00000+0 -60129-2 0  9996
2 67898  97.2677   1.6391 0001383 101.1347 120.5247 15.85766127  3844
STARLINK-36878          
1 67899U 26035W   26069.25002315 -.01295701  00000+0 -60868-2 0  9992
2 67899  97.2671   1.6431 0001527 116.0484 114.6974 15.85708235  3848
STARLINK-36361          
1 67900U 26035X   26069.25002315 -.01303159  00000+0 -61412-2 0  9998
2 67900  97.2670   1.6451 0001543 117.9379 117.5107 15.85658792  3845
STARLINK-36336          
1 67901U 26035Y   26069.25002315 -.01325009  00000+0 -63068-2 0  9996
2 67901  97.2676   1.6521 0001425 109.5043 140.1394 15.85500807  3892
STARLINK-36876          
1 67902U 26035Z   26069.25002315 -.01309725  00000+0 -61805-2 0  9991
2 67902  97.2675   1.6484 0001601 114.5728 125.3484 15.85644015  3842
STARLINK-36257          
1 67903U 26035AA  26069.25002315 -.01317729  00000+0 -62321-2 0  9999
2 67903  97.2673   1.6490 0001387 103.2631 141.2166 15.85617874  3899
STARLINK-36814          
1 67904U 26036A   26069.25002315 -.01969049  00000+0 -15616-1 0  9993
2 67904  42.9999 246.4570 0001533 269.8605 246.1556 15.73307431  3732
STARLINK-36729          
1 67905U 26036B   26068.96364195  .00302828  00000+0  13842-2 0  9991
2 67905  42.9992 248.1201 0002070 279.1565  80.9072 15.82119465  3715
STARLINK-36763          
1 67906U 26036C   26068.89976368  .00195584  00000+0  90861-3 0  9991
2 67906  42.9991 248.5006 0001658 287.2048  72.8643 15.82061167  3707
STARLINK-36742          
1 67907U 26036D   26068.89901138  .00267893  00000+0  12310-2 0  9990
2 67907  42.9993 248.4956 0002122 279.1110  80.9522 15.82098755  3709
STARLINK-36827          
1 67908U 26036E   26068.96139653  .00333800  00000+0  15202-2 0  9999
2 67908  42.9986 248.1012 0002108 299.4497  60.6164 15.82117013  3716
STARLINK-36822          
1 67909U 26036F   26068.96064622  .00410368  00000+0  18493-2 0  9993
2 67909  42.9986 248.0951 0001770 299.6042  60.4653 15.82145601  3715
